CCSDS_OMM_VERS,COMMENT,CREATION_DATE,ORIGINATOR,OBJECT_NAME,OBJECT_ID,CENTER_NAME,REF_FRAME,TIME_SYSTEM,MEAN_ELEMENT_THEORY,EPOCH,MEAN_MOTION,ECCENTRICITY,INCLINATION,RA_OF_ASC_NODE,ARG_OF_PERICENTER,MEAN_ANOMALY,EPHEMERIS_TYPE,CLASSIFICATION_TYPE,NORAD_CAT_ID,ELEMENT_SET_NO,REV_AT_EPOCH,BSTAR,MEAN_MOTION_DOT,MEAN_MOTION_DDOT,SEMIMAJOR_AXIS,PERIOD,APOAPSIS,PERIAPSIS,OBJECT_TYPE,RCS_SIZE,COUNTRY_CODE,LAUNCH_DATE,SITE,DECAY_DATE,FILE,GP_ID,TLE_LINE0,TLE_LINE1,TLE_LINE2
2,GENERATED VIA SPACE-TRACK.ORG API,2023-04-24T06:36:12,18 SPCS,KSF3-C,2023-001K,EARTH,TEME,UTC,SGP4,2023-04-24T03:20:19.429728,15.15532763,0.0010865,97.4803,174.4543,195.9374,248.0985,0,U,55018,999,1687,0.00075658,0.00014311,0,6897.499,95.016,526.858,511.869,PAYLOAD,MEDIUM,LUXE,2023-01-03,AFETR,,3892887,230665778,0 KSF3-C,1 55018U 23001K   23114.13911377  .00014311  00000-0  75658-3 0  9992,2 55018  97.4803 174.4543 0010865 195.9374 248.0985 15.15532763 16874
2,GENERATED VIA SPACE-TRACK.ORG API,2023-04-24T14:36:12,18 SPCS,KSF3-C,2023-001K,EARTH,TEME,UTC,SGP4,2023-04-24T11:08:28.174272,15.15547231,0.001042,97.4803,174.7745,195.4671,221.1797,0,U,55018,999,1692,0.00084384,0.00015978,0,6897.455,95.015,526.507,512.133,PAYLOAD,MEDIUM,LUXE,2023-01-03,AFETR,,3893133,230671383,0 KSF3-C,1 55018U 23001K   23114.46421498  .00015978  00000-0  84384-3 0  9994,2 55018  97.4803 174.7745 0010420 195.4671 221.1797 15.15547231 16928
2,GENERATED VIA SPACE-TRACK.ORG API,2023-04-24T17:32:28,18 SPCS,KSF3-C,2023-001K,EARTH,TEME,UTC,SGP4,2023-04-24T11:08:28.174272,15.15547231,0.001042,97.4803,174.7745,195.4671,221.1797,0,U,55018,999,1692,0.00084384,0.00015978,0,6897.455,95.015,526.507,512.133,PAYLOAD,MEDIUM,LUXE,2023-01-03,AFETR,,3893330,230701406,0 KSF3-C,1 55018U 23001K   23114.46421498  .00015978  00000-0  84384-3 0  9994,2 55018  97.4803 174.7745 0010420 195.4671 221.1797 15.15547231 16928
2,GENERATED VIA SPACE-TRACK.ORG API,2023-04-24T22:36:12,18 SPCS,KSF3-C,2023-001K,EARTH,TEME,UTC,SGP4,2023-04-24T19:17:43.770912,15.15569916,0.0010443,97.481,175.1093,190.4128,278.8363,0,U,55018,999,1697,0.001034,0.00019615,0,6897.386,95.014,526.454,512.048,PAYLOAD,MEDIUM,LUXE,2023-01-03,AFETR,,3893418,230704472,0 KSF3-C,1 55018U 23001K   23114.80397883  .00019615  00000-0  10340-2 0  9994,2 55018  97.4810 175.1093 0010443 190.4128 278.8363 15.15569916 16971
2,GENERATED VIA SPACE-TRACK.ORG API,2023-04-25T06:46:22,18 SPCS,KSF3-C,2023-001K,EARTH,TEME,UTC,SGP4,2023-04-25T03:06:23.031072,15.15595745,0.0010785,97.4806,175.4279,191.428,252.4252,0,U,55018,999,1702,0.001218,0.00023149,0,6897.308,95.012,526.611,511.734,PAYLOAD,MEDIUM,LUXE,2023-01-03,AFETR,,3893649,230709230,0 KSF3-C,1 55018U 23001K   23115.12943323  .00023149  00000-0  12180-2 0  9997,2 55018  97.4806 175.4279 0010785 191.4280 252.4252 15.15595745 17025
2,GENERATED VIA SPACE-TRACK.ORG API,2023-04-25T14:46:12,18 SPCS,KSF3-C,2023-001K,EARTH,TEME,UTC,SGP4,2023-04-25T11:12:29.789280,15.15616152,0.0010892,97.4811,175.7612,190.4424,294.1321,0,U,55018,999,1707,0.0013665,0.00026004,0,6897.246,95.011,526.623,511.598,PAYLOAD,MEDIUM,LUXE,2023-01-03,AFETR,,3893947,230716560,0 KSF3-C,1 55018U 23001K   23115.46701145  .00026004  00000-0  13665-2 0  9990,2 55018  97.4811 175.7612 0010892 190.4424 294.1321 15.15616152 17074
2,GENERATED VIA SPACE-TRACK.ORG API,2023-04-25T17:15:25,18 SPCS,KSF3-C,2023-001K,EARTH,TEME,UTC,SGP4,2023-04-25T11:12:29.789280,15.15616152,0.0010892,97.4811,175.7612,190.4424,294.1321,0,U,55018,999,1707,0.0013665,0.00026004,0,6897.246,95.011,526.623,511.598,PAYLOAD,MEDIUM,LUXE,2023-01-03,AFETR,,3894092,230745394,0 KSF3-C,1 55018U 23001K   23115.46701145  .00026004  00000-0  13665-2 0  9990,2 55018  97.4811 175.7612 0010892 190.4424 294.1321 15.15616152 17074
2,GENERATED VIA SPACE-TRACK.ORG API,2023-04-26T20:58:30,18 SPCS,KSF3-C,2023-001K,EARTH,TEME,UTC,SGP4,2023-04-26T10:58:47.651808,15.15632395,0.0011202,97.4809,176.7368,186.9525,298.4799,0,U,55018,999,1722,0.00082859,0.00015728,0,6897.196,95.01,526.788,511.335,PAYLOAD,MEDIUM,LUXE,2023-01-03,AFETR,,3894260,230775785,0 KSF3-C,1 55018U 23001K   23116.45749597  .00015728  00000-0  82859-3 0  9996,2 55018  97.4809 176.7368 0011202 186.9525 298.4799 15.15632395 17228
2,GENERATED VIA SPACE-TRACK.ORG API,2023-04-27T03:48:29,18 SPCS,KSF3-C,2023-001K,EARTH,TEME,UTC,SGP4,2023-04-26T18:57:25.435872,15.15636842,0.0011308,97.4808,177.0645,186.287,311.5523,0,U,55018,999,1727,0.00072934,0.00013835,0,6897.183,95.01,526.847,511.249,PAYLOAD,MEDIUM,LUXE,2023-01-03,AFETR,,3894261,230802793,0 KSF3-C,1 55018U 23001K   23116.78987773  .00013835  00000-0  72934-3 0  9992,2 55018  97.4808 177.0645 0011308 186.2870 311.5523 15.15636842 17270
2,GENERATED VIA SPACE-TRACK.ORG API,2023-04-27T06:36:13,18 SPCS,KSF3-C,2023-001K,EARTH,TEME,UTC,SGP4,2023-04-27T04:07:46.435872,15.15640178,0.0011021,97.4811,177.4408,183.7734,238.0549,0,U,55018,999,1733,0.00060799,0.00011519,0,6897.173,95.009,526.639,511.436,PAYLOAD,MEDIUM,LUXE,2023-01-03,AFETR,,3894335,230804950,0 KSF3-C,1 55018U 23001K   23117.17206523  .00011519  00000-0  60799-3 0  9996,2 55018  97.4811 177.4408 0011021 183.7734 238.0549 15.15640178 17333
2,GENERATED VIA SPACE-TRACK.ORG API,2023-04-27T16:16:14,18 SPCS,KSF3-C,2023-001K,EARTH,TEME,UTC,SGP4,2023-04-27T12:15:01.217664,15.1566814,0.001004,97.4806,177.7731,183.2236,283.6907,0,U,55018,999,1738,0.00094131,0.00017895,0,6897.088,95.008,525.878,512.028,PAYLOAD,MEDIUM,LUXE,2023-01-03,AFETR,,3894597,230810910,0 KSF3-C,1 55018U 23001K   23117.51043076  .00017895  00000-0  94131-3 0  9996,2 55018  97.4806 177.7731 0010040 183.2236 283.6907 15.15668140 17389
2,GENERATED VIA SPACE-TRACK.ORG API,2023-04-27T20:46:29,18 SPCS,KSF3-C,2023-001K,EARTH,TEME,UTC,SGP4,2023-04-27T12:15:01.217664,15.1566814,0.001004,97.4806,177.7731,183.2236,283.6907,0,U,55018,999,1738,0.00094131,0.00017895,0,6897.088,95.008,525.878,512.028,PAYLOAD,MEDIUM,LUXE,2023-01-03,AFETR,,3894751,230839800,0 KSF3-C,1 55018U 23001K   23117.51043076  .00017895  00000-0  94131-3 0  9996,2 55018  97.4806 177.7731 0010040 183.2236 283.6907 15.15668140 17389
2,GENERATED VIA SPACE-TRACK.ORG API,2023-04-27T22:46:12,18 SPCS,KSF3-C,2023-001K,EARTH,TEME,UTC,SGP4,2023-04-27T16:57:28.913760,15.15672526,0.0009831,97.4809,177.9662,183.454,273.0597,0,U,55018,999,1741,0.00092536,0.00017591,0,6897.075,95.007,525.72,512.159,PAYLOAD,MEDIUM,LUXE,2023-01-03,AFETR,,3894797,230841803,0 KSF3-C,1 55018U 23001K   23117.70658465  .00017591  00000-0  92536-3 0  9991,2 55018  97.4809 177.9662 0009831 183.4540 273.0597 15.15672526 17418
2,GENERATED VIA SPACE-TRACK.ORG API,2023-04-28T07:06:12,18 SPCS,KSF3-C,2023-001K,EARTH,TEME,UTC,SGP4,2023-04-28T05:36:07.579584,15.15676962,0.0011337,97.4809,178.4926,178.6254,270.667,0,U,55018,999,1749,0.0011777,0.00022433,0,6897.061,95.007,526.745,511.107,PAYLOAD,MEDIUM,LUXE,2023-01-03,AFETR,,3895131,230849398,0 KSF3-C,1 55018U 23001K   23118.23342106  .00022433  00000-0  11777-2 0  9990,2 55018  97.4809 178.4926 0011337 178.6254 270.6670 15.15676962 17490
2,GENERATED VIA SPACE-TRACK.ORG API,2023-04-28T15:46:13,18 SPCS,KSF3-C,2023-001K,EARTH,TEME,UTC,SGP4,2023-04-28T13:43:49.905696,15.15694089,0.0010347,97.4811,178.8211,177.7693,318.3838,0,U,55018,999,1754,0.00087153,0.00016574,0,6897.009,95.006,526.011,511.738,PAYLOAD,MEDIUM,LUXE,2023-01-03,AFETR,,3895497,230857797,0 KSF3-C,1 55018U 23001K   23118.57210539  .00016574  00000-0  87153-3 0  9992,2 55018  97.4811 178.8211 0010347 177.7693 318.3838 15.15694089 17543
2,GENERATED VIA SPACE-TRACK.ORG API,2023-04-28T20:22:50,18 SPCS,KSF3-C,2023-001K,EARTH,TEME,UTC,SGP4,2023-04-28T13:43:49.905696,15.15694089,0.0010347,97.4811,178.8211,177.7693,318.3838,0,U,55018,999,1754,0.00087153,0.00016574,0,6897.009,95.006,526.011,511.738,PAYLOAD,MEDIUM,LUXE,2023-01-03,AFETR,,3895770,230888455,0 KSF3-C,1 55018U 23001K   23118.57210539  .00016574  00000-0  87153-3 0  9992,2 55018  97.4811 178.8211 0010347 177.7693 318.3838 15.15694089 17543
2,GENERATED VIA SPACE-TRACK.ORG API,2023-04-28T16:56:12,18 SPCS,KSF3-C,2023-001K,EARTH,TEME,UTC,SGP4,2023-04-28T14:42:59.251392,15.15677037,0.0011128,97.4813,178.8633,178.6996,181.4268,0,U,55018,999,1755,0.00062339,0.00011825,0,6897.061,95.007,526.601,511.251,PAYLOAD,MEDIUM,LUXE,2023-01-03,AFETR,,3895693,230862057,0 KSF3-C,1 55018U 23001K   23118.61318578  .00011825  00000-0  62339-3 0  9992,2 55018  97.4813 178.8633 0011128 178.6996 181.4268 15.15677037 17558
2,GENERATED VIA SPACE-TRACK.ORG API,2023-04-28T22:26:12,18 SPCS,KSF3-C,2023-001K,EARTH,TEME,UTC,SGP4,2023-04-28T18:29:58.093728,15.15682384,0.0011266,97.4809,179.0157,178.3257,321.3313,0,U,55018,999,1757,0.00066876,0.00012695,0,6897.045,95.007,526.68,511.139,PAYLOAD,MEDIUM,LUXE,2023-01-03,AFETR,,3895827,230891212,0 KSF3-C,1 55018U 23001K   23118.77081127  .00012695  00000-0  66876-3 0  9992,2 55018  97.4809 179.0157 0011266 178.3257 321.3313 15.15682384 17576
2,GENERATED VIA SPACE-TRACK.ORG API,2023-04-29T06:56:13,18 SPCS,KSF3-C,2023-001K,EARTH,TEME,UTC,SGP4,2023-04-29T03:30:52.396128,15.15689938,0.0011526,97.4811,179.3868,177.107,210.8516,0,U,55018,999,1763,0.00064609,0.00012265,0,6897.022,95.006,526.836,510.937,PAYLOAD,MEDIUM,LUXE,2023-01-03,AFETR,,3896109,230897019,0 KSF3-C,1 55018U 23001K   23119.14643977  .00012265  00000-0  64609-3 0  9996,2 55018  97.4811 179.3868 0011526 177.1070 210.8516 15.15689938 17636
2,GENERATED VIA SPACE-TRACK.ORG API,2023-04-29T14:36:12,18 SPCS,KSF3-C,2023-001K,EARTH,TEME,UTC,SGP4,2023-04-29T10:18:07.941312,15.15697251,0.0011444,97.4812,179.6663,176.0325,314.1462,0,U,55018,999,1767,0.00064939,0.0001233,0,6897.0,95.006,526.758,510.972,PAYLOAD,MEDIUM,LUXE,2023-01-03,AFETR,,3896376,230902893,0 KSF3-C,1 55018U 23001K   23119.42925858  .00012330  00000-0  64939-3 0  9997,2 55018  97.4812 179.6663 0011444 176.0325 314.1462 15.15697251 17672
